GONETS-M 25             
1 54152U 22139C   26080.23914229  .00000029  00000+0  13393-3 0  9994
2 54152  82.5052  42.6966 0021824  63.1161 297.2146 12.42886861154725
SKIF-D                  
1 54153U 22139D   26079.31985285  .00000046  00000+0  00000+0 0  9998
2 54153  89.9554  96.6992 0007438 232.3705 127.6254  5.00427381 59668
STARLINK-5290           
1 54157U 22141A   26079.98794841  .00001241  00000+0  96024-4 0  9998
2 54157  53.2175 323.3551 0001418  88.5555 271.5600 15.08837710187422
STARLINK-5297           
1 54158U 22141B   26079.93918078  .00002761  00000+0  19150-3 0  9996
2 54158  53.2177 323.7542 0001314  95.2054 264.9088 15.08840570187416
STARLINK-5294           
1 54159U 22141C   26079.93550317  .00001078  00000+0  85814-4 0  9996
2 54159  53.2177 323.7410 0001314  81.4846 278.6295 15.08839405187414
STARLINK-5233           
1 54160U 22141D   26080.24690515 -.00001337  00000+0 -65933-4 0  9999
2 54160  53.2170 277.2055 0001288  88.3849 271.7291 15.08830684188091
STARLINK-5269           
1 54161U 22141E   26079.93644801  .00000251  00000+0  33849-4 0  9994
2 54161  53.2176 323.7390 0001341  88.4644 271.6502 15.08843901187416
STARLINK-5273           
1 54162U 22141F   26079.99436079  .00000275  00000+0  35388-4 0  9993
2 54162  53.2183 323.3877 0001353  88.5321 271.5827 15.08841272187426
STARLINK-5161           
1 54163U 22141G   26079.94009802  .00000481  00000+0  48284-4 0  9997
2 54163  53.2183 313.7846 0001406  87.1599 272.9554 15.08839615187551
STARLINK-5278           
1 54164U 22141H   26079.94379503  .00000052  00000+0  21331-4 0  9994
2 54164  53.2180 313.8087 0001278  95.4597 264.6541 15.08831322187555
STARLINK-5279           
1 54165U 22141J   26079.99067870  .00000677  00000+0  60609-4 0  9995
2 54165  53.2177 323.3650 0001442  94.7555 265.3602 15.08841369187427
STARLINK-5280           
1 54166U 22141K   26079.93641473 -.00000006  00000+0  17743-4 0  9995
2 54166  53.2175 313.7622 0001298  84.7289 275.3851 15.08837303187554
STARLINK-5243           
1 54167U 22141L   26079.90601256  .00000084  00000+0  23364-4 0  9999
2 54167  53.2190 323.5502 0001511  92.3259 267.7907 15.08836846187411
STARLINK-5245           
1 54168U 22141M   26079.86648807  .00000535  00000+0  51700-4 0  9994
2 54168  53.2186 314.0374 0001291  89.9981 270.1160 15.08837914187548
STARLINK-5282           
1 54169U 22141N   26079.94738368  .00000972  00000+0  79156-4 0  9996
2 54169  53.2179 313.1334 0001392  87.6898 272.4253 15.08838676187567
STARLINK-5155           
1 54170U 22141P   26079.92904468  .00000783  00000+0  67249-4 0  9992
2 54170  53.2183 313.7181 0001337  90.7134 269.4011 15.08842094187553
STARLINK-5117           
1 54172U 22141R   26079.92167497  .00000054  00000+0  21455-4 0  9997
2 54172  53.2178 313.6712 0001440  89.5616 270.5542 15.08838666187556
STARLINK-5242           
1 54173U 22141S   26079.95107187 -.00001407  00000+0 -70338-4 0  9990
2 54173  53.2185 313.1489 0001502  79.7677 280.3485 15.08844146187564
STARLINK-5248           
1 54174U 22141T   26080.22294905 -.00001478  00000+0 -74774-4 0  9994
2 54174  53.2158 257.0888 0001751  92.3629 267.7563 15.08843666188370
STARLINK-5256           
1 54175U 22141U   26079.92535836  .00000467  00000+0  47439-4 0  9994
2 54175  53.2174 313.6943 0001333  95.8634 264.2511 15.08845789187552
STARLINK-5154           
1 54176U 22141V   26080.04310186 -.00001864  00000+0 -99084-4 0  9996
2 54176  53.2183 313.0086 0001439  96.4375 263.6781 15.08831323187574
STARLINK-5186           
1 54177U 22141W   26079.91796905 -.00013620  00000+0 -83787-3 0  9993
2 54177  53.2182 313.6461 0001713  75.2871 284.8312 15.08900243187559
STARLINK-5164           
1 54178U 22141X   26079.96210645  .00007376  00000+0  48055-3 0  9999
2 54178  53.2167 313.1983 0001032  63.2703 296.8395 15.08877311187566
STARLINK-5122           
1 54179U 22141Y   26079.91428878  .00000796  00000+0  68045-4 0  9995
2 54179  53.2184 313.6233 0000418  99.4304 260.6736 15.08855899187558
STARLINK-5228           
1 54180U 22141Z   26080.16667824  .00187773  00000+0  42246-2 0  9996
2 54180  53.2162 309.9011 0001189  94.3367  92.3995 15.42126195  5832
STARLINK-5227           
1 54181U 22141AA  26079.90325222  .00001037  00000+0  83229-4 0  9996
2 54181  53.2181 313.5599 0001503  85.2883 274.8281 15.08845037187558
STARLINK-5231           
1 54182U 22141AB  26080.27767866  .00000523  00000+0  50946-4 0  9992
2 54182  53.2168 281.7354 0001466  95.2649 264.8510 15.08838221188033
STARLINK-5239           
1 54183U 22141AC  26079.95476126  .00000071  00000+0  22585-4 0  9998
2 54183  53.2190 313.1738 0001285  87.2905 272.8234 15.08824902187560
STARLINK-5162           
1 54184U 22141AD  26079.95948327 -.00000698  00000+0 -25776-4 0  9998
2 54184  53.2177 313.8917 0001393  88.5547 271.5605 15.08830117187550
STARLINK-5235           
1 54185U 22141AE  26079.96580989 -.00001566  00000+0 -80302-4 0  9997
2 54185  53.2191 313.2394 0001492  84.5597 275.5565 15.08842796187567
