OBJECT_NAME,OBJECT_ID,EPOCH,MEAN_MOTION,ECCENTRICITY,INCLINATION,RA_OF_ASC_NODE,ARG_OF_PERICENTER,MEAN_ANOMALY,EPHEMERIS_TYPE,CLASSIFICATION_TYPE,NORAD_CAT_ID,ELEMENT_SET_NO,REV_AT_EPOCH,BSTAR,MEAN_MOTION_DOT,MEAN_MOTION_DDOT
GONETS-M 25,2022-139C,2026-03-21T05:44:21.893856,12.42886861,.0021824,82.5052,42.6966,63.1161,297.2146,0,U,54152,999,15472,.13393009E-3,.29E-6,0
SKIF-D,2022-139D,2026-03-20T07:40:35.286240,5.00427381,.0007438,89.9554,96.6992,232.3705,127.6254,0,U,54153,999,5966,0,.46E-6,0
STARLINK-5290,2022-141A,2026-03-20T23:42:38.742624,15.08837710,.00014186,53.2175,323.3551,88.5555,271.5600,0,U,54157,999,18742,.96024305E-4,.1241E-4,0
STARLINK-5297,2022-141B,2026-03-20T22:32:25.219392,15.08840570,.00013141,53.2177,323.7542,95.2054,264.9088,0,U,54158,999,18741,.19149953E-3,.2761E-4,0
STARLINK-5294,2022-141C,2026-03-20T22:27:07.473888,15.08839405,.00013144,53.2177,323.7410,81.4846,278.6295,0,U,54159,999,18741,.85813755E-4,.1078E-4,0
STARLINK-5233,2022-141D,2026-03-21T05:55:32.604960,15.08830684,.00012886,53.2170,277.2055,88.3849,271.7291,0,U,54160,999,18809,-.65932803E-4,-.1337E-4,0
STARLINK-5269,2022-141E,2026-03-20T22:28:29.108064,15.08843901,.00013419,53.2176,323.7390,88.4644,271.6502,0,U,54161,999,18741,.33849361E-4,.251E-5,0
STARLINK-5273,2022-141F,2026-03-20T23:51:52.772256,15.08841272,.00013535,53.2183,323.3877,88.5321,271.5827,0,U,54162,999,18742,.35387621E-4,.275E-5,0
STARLINK-5161,2022-141G,2026-03-20T22:33:44.468928,15.08839615,.00014068,53.2183,313.7846,87.1599,272.9554,0,U,54163,999,18755,.48284076E-4,.481E-5,0
STARLINK-5278,2022-141H,2026-03-20T22:39:03.890592,15.08831322,.00012784,53.2180,313.8087,95.4597,264.6541,0,U,54164,999,18755,.21330655E-4,.52E-6,0
STARLINK-5279,2022-141J,2026-03-20T23:46:34.639680,15.08841369,.00014427,53.2177,323.3650,94.7555,265.3602,0,U,54165,999,18742,.60609298E-4,.677E-5,0
STARLINK-5280,2022-141K,2026-03-20T22:28:26.232672,15.08837303,.00012987,53.2175,313.7622,84.7289,275.3851,0,U,54166,999,18755,.17743398E-4,-.6E-7,0
STARLINK-5243,2022-141L,2026-03-20T21:44:39.485184,15.08836846,.00015111,53.2190,323.5502,92.3259,267.7907,0,U,54167,999,18741,.23363967E-4,.84E-6,0
STARLINK-5245,2022-141M,2026-03-20T20:47:44.569248,15.08837914,.00012917,53.2186,314.0374,89.9981,270.1160,0,U,54168,999,18754,.51699506E-4,.535E-5,0
STARLINK-5282,2022-141N,2026-03-20T22:44:13.949952,15.08838676,.00013926,53.2179,313.1334,87.6898,272.4253,0,U,54169,999,18756,.79156425E-4,.972E-5,0
STARLINK-5155,2022-141P,2026-03-20T22:17:49.460352,15.08842094,.00013379,53.2183,313.7181,90.7134,269.4011,0,U,54170,999,18755,.67248991E-4,.783E-5,0
STARLINK-5117,2022-141R,2026-03-20T22:07:12.717408,15.08838666,.00014409,53.2178,313.6712,89.5616,270.5542,0,U,54172,999,18755,.21454989E-4,.54E-6,0
STARLINK-5242,2022-141S,2026-03-20T22:49:32.609568,15.08844146,.0001502,53.2185,313.1489,79.7677,280.3485,0,U,54173,999,18756,-.70338132E-4,-.1407E-4,0
STARLINK-5248,2022-141T,2026-03-21T05:21:02.797920,15.08843666,.0001751,53.2158,257.0888,92.3629,267.7563,0,U,54174,999,18837,-.74773993E-4,-.1478E-4,0
STARLINK-5256,2022-141U,2026-03-20T22:12:30.962304,15.08845789,.0001333,53.2174,313.6943,95.8634,264.2511,0,U,54175,999,18755,.47438951E-4,.467E-5,0
STARLINK-5154,2022-141V,2026-03-21T01:02:04.000704,15.08831323,.00014391,53.2183,313.0086,96.4375,263.6781,0,U,54176,999,18757,-.99084041E-4,-.1864E-4,0
STARLINK-5186,2022-141W,2026-03-20T22:01:52.525920,15.08900243,.00017138,53.2182,313.6461,75.2871,284.8312,0,U,54177,999,18755,-.83786916E-3,-.1362E-3,0
STARLINK-5164,2022-141X,2026-03-20T23:05:25.997280,15.08877311,.0001032,53.2167,313.1983,63.2703,296.8395,0,U,54178,999,18756,.48055156E-3,.7376E-4,0
STARLINK-5122,2022-141Y,2026-03-20T21:56:34.550592,15.08855899,.00004189,53.2184,313.6233,99.4304,260.6736,0,U,54179,999,18755,.68044821E-4,.796E-5,0
STARLINK-5228,2022-141Z,2026-03-21T04:00:00.999936,15.42126195,.00011897,53.2162,309.9011,94.3367,92.3995,0,U,54180,999,583,.42245697E-2,.187773E-2,0
STARLINK-5227,2022-141AA,2026-03-20T21:40:40.991808,15.08845037,.0001503,53.2181,313.5599,85.2883,274.8281,0,U,54181,999,18755,.8322863E-4,.1037E-4,0
STARLINK-5231,2022-141AB,2026-03-21T06:39:51.436224,15.08838221,.00014669,53.2168,281.7354,95.2649,264.8510,0,U,54182,999,18803,.5094573E-4,.523E-5,0
STARLINK-5239,2022-141AC,2026-03-20T22:54:51.372864,15.08824902,.00012858,53.2190,313.1738,87.2905,272.8234,0,U,54183,999,18756,.22585422E-4,.71E-6,0
STARLINK-5162,2022-141AD,2026-03-20T23:01:39.354528,15.08830117,.00013931,53.2177,313.8917,88.5547,271.5605,0,U,54184,999,18755,-.25776291E-4,-.698E-5,0
STARLINK-5235,2022-141AE,2026-03-20T23:10:45.974496,15.08842796,.00014922,53.2191,313.2394,84.5597,275.5565,0,U,54185,999,18756,-.80301719E-4,-.1566E-4,0
